{
  "type": "FeatureCollection",
  "features": [
    {
      "type": "Feature",
      "properties": {
        "norad_id": 31062,
        "name": "FENGYUN 1C DEB",
        "group": "fengyun-1c-debris",
        "lat": -52.21909489881617,
        "lon": 179.70444679292694,
        "alt_km": 863.5600063167158,
        "timestamp": "2025-12-11T10:53:16.167787+00:00",
        "meta_object_name": "FENGYUN 1C DEB",
        "meta_object_id": "1999-025BFG",
        "meta_epoch": "2025-12-08T18:38:34.024416",
        "meta_mean_motion": 13.75688586,
        "meta_eccentricity": 0.01717436,
        "meta_inclination": 98.9968,
        "meta_ra_of_asc_node": 165.3833,
        "meta_arg_of_pericenter": 328.4179,
        "meta_mean_anomaly": 48.9055,
        "meta_ephemeris_type": 0,
        "meta_classification_type": "U",
        "meta_norad_cat_id": 31062,
        "meta_element_set_no": 999,
        "meta_rev_at_epoch": 94179,
        "meta_bstar": 0.00045821902,
        "meta_mean_motion_dot": 4.51e-06,
        "meta_mean_motion_ddot": 0,
        "tle_line1": "1 31062U 99025BFG 25342.77678269  .00000451  00000+0  45822-3 0  9998",
        "tle_line2": "2 31062  98.9968 165.3833 0171743 328.4179  48.9055 13.75688586941797"
      },
      "geometry": {
        "type": "Point",
        "coordinates": [
          179.70444679292694,
          -52.21909489881617
        ]
      }
    },
    {
      "type": "Feature",
      "properties": {
        "norad_id": 31064,
        "name": "FENGYUN 1C DEB",
        "group": "fengyun-1c-debris",
        "lat": -61.71133511787342,
        "lon": 131.89408228470066,
        "alt_km": 915.6579073911253,
        "timestamp": "2025-12-11T10:53:16.167798+00:00",
        "meta_object_name": "FENGYUN 1C DEB",
        "meta_object_id": "1999-025BFJ",
        "meta_epoch": "2025-12-10T22:03:02.795904",
        "meta_mean_motion": 14.22128283,
        "meta_eccentricity": 0.0241659,
        "meta_inclination": 98.5737,
        "meta_ra_of_asc_node": 327.6525,
        "meta_arg_of_pericenter": 6.9085,
        "meta_mean_anomaly": 21.4961,
        "meta_ephemeris_type": 0,
        "meta_classification_type": "U",
        "meta_norad_cat_id": 31064,
        "meta_element_set_no": 999,
        "meta_rev_at_epoch": 97229,
        "meta_bstar": 0.00058583,
        "meta_mean_motion_dot": 1.7e-05,
        "meta_mean_motion_ddot": 0,
        "tle_line1": "1 31064U 99025BFJ 25344.91878236  .00001700  00000+0  58583-3 0  9990",
        "tle_line2": "2 31064  98.5737 327.6525 0241659   6.9085  21.4961 14.22128283972295"
      },
      "geometry": {
        "type": "Point",
        "coordinates": [
          131.89408228470066,
          -61.71133511787342
        ]
      }
    },
    {
      "type": "Feature",
      "properties": {
        "norad_id": 31065,
        "name": "FENGYUN 1C DEB",
        "group": "fengyun-1c-debris",
        "lat": 31.823606518539144,
        "lon": -170.09480702854304,
        "alt_km": 805.5797718807162,
        "timestamp": "2025-12-11T10:53:16.167808+00:00",
        "meta_object_name": "FENGYUN 1C DEB",
        "meta_object_id": "1999-025BFK",
        "meta_epoch": "2025-12-10T19:04:06.540960",
        "meta_mean_motion": 14.28161243,
        "meta_eccentricity": 0.00352875,
        "meta_inclination": 98.4671,
        "meta_ra_of_asc_node": 3.9618,
        "meta_arg_of_pericenter": 37.2284,
        "meta_mean_anomaly": 323.1334,
        "meta_ephemeris_type": 0,
        "meta_classification_type": "U",
        "meta_norad_cat_id": 31065,
        "meta_element_set_no": 999,
        "meta_rev_at_epoch": 64550,
        "meta_bstar": 0.0013095364,
        "meta_mean_motion_dot": 3.239e-05,
        "meta_mean_motion_ddot": 0,
        "tle_line1": "1 31065U 99025BFK 25344.79452015  .00003239  00000+0  13095-2 0  9997",
        "tle_line2": "2 31065  98.4671   3.9618 0035287  37.2284 323.1334 14.28161243645501"
      },
      "geometry": {
        "type": "Point",
        "coordinates": [
          -170.09480702854304,
          31.823606518539144
        ]
      }
    },
    {
      "type": "Feature",
      "properties": {
        "norad_id": 31068,
        "name": "FENGYUN 1C DEB",
        "group": "fengyun-1c-debris",
        "lat": -79.73735148695005,
        "lon": 24.675789883903104,
        "alt_km": 976.6215721691042,
        "timestamp": "2025-12-11T10:53:16.167818+00:00",
        "meta_object_name": "FENGYUN 1C DEB",
        "meta_object_id": "1999-025BFN",
        "meta_epoch": "2025-12-08T16:50:26.088576",
        "meta_mean_motion": 14.0918717,
        "meta_eccentricity": 0.01655633,
        "meta_inclination": 98.6287,
        "meta_ra_of_asc_node": 325.0408,
        "meta_arg_of_pericenter": 129.6248,
        "meta_mean_anomaly": 231.9669,
        "meta_ephemeris_type": 0,
        "meta_classification_type": "U",
        "meta_norad_cat_id": 31068,
        "meta_element_set_no": 999,
        "meta_rev_at_epoch": 96298,
        "meta_bstar": 0.00020953749,
        "meta_mean_motion_dot": 3.73e-06,
        "meta_mean_motion_ddot": 0,
        "tle_line1": "1 31068U 99025BFN 25342.70169084  .00000373  00000+0  20954-3 0  9999",
        "tle_line2": "2 31068  98.6287 325.0408 0165563 129.6248 231.9669 14.09187170962988"
      },
      "geometry": {
        "type": "Point",
        "coordinates": [
          24.675789883903104,
          -79.73735148695005
        ]
      }
    },
    {
      "type": "Feature",
      "properties": {
        "norad_id": 31069,
        "name": "FENGYUN 1C DEB",
        "group": "fengyun-1c-debris",
        "lat": 44.52327232128212,
        "lon": 136.55077172333398,
        "alt_km": 638.4583718126651,
        "timestamp": "2025-12-11T10:53:16.167829+00:00",
        "meta_object_name": "FENGYUN 1C DEB",
        "meta_object_id": "1999-025BFP",
        "meta_epoch": "2025-12-07T04:30:06.594048",
        "meta_mean_motion": 14.57048672,
        "meta_eccentricity": 0.01047006,
        "meta_inclination": 99.0995,
        "meta_ra_of_asc_node": 140.963,
        "meta_arg_of_pericenter": 94.1529,
        "meta_mean_anomaly": 267.1641,
        "meta_ephemeris_type": 0,
        "meta_classification_type": "U",
        "meta_norad_cat_id": 31069,
        "meta_element_set_no": 999,
        "meta_rev_at_epoch": 98605,
        "meta_bstar": 0.0012606764,
        "meta_mean_motion_dot": 6.061e-05,
        "meta_mean_motion_ddot": 0,
        "tle_line1": "1 31069U 99025BFP 25341.18757632  .00006061  00000+0  12607-2 0  9998",
        "tle_line2": "2 31069  99.0995 140.9630 0104700  94.1529 267.1641 14.57048672986056"
      },
      "geometry": {
        "type": "Point",
        "coordinates": [
          136.55077172333398,
          44.52327232128212
        ]
      }
    },
    {
      "type": "Feature",
      "properties": {
        "norad_id": 31071,
        "name": "FENGYUN 1C DEB",
        "group": "fengyun-1c-debris",
        "lat": 16.639673570885744,
        "lon": -114.17240460817244,
        "alt_km": 738.9259102182295,
        "timestamp": "2025-12-11T10:53:16.167840+00:00",
        "meta_object_name": "FENGYUN 1C DEB",
        "meta_object_id": "1999-025BFR",
        "meta_epoch": "2025-12-08T22:37:13.190592",
        "meta_mean_motion": 14.52575216,
        "meta_eccentricity": 0.005558,
        "meta_inclination": 99.0415,
        "meta_ra_of_asc_node": 60.396,
        "meta_arg_of_pericenter": 293.3951,
        "meta_mean_anomaly": 66.1403,
        "meta_ephemeris_type": 0,
        "meta_classification_type": "U",
        "meta_norad_cat_id": 31071,
        "meta_element_set_no": 999,
        "meta_rev_at_epoch": 65439,
        "meta_bstar": 0.0013268,
        "meta_mean_motion_dot": 5.486e-05,
        "meta_mean_motion_ddot": 0,
        "tle_line1": "1 31071U 99025BFR 25342.94251378  .00005486  00000+0  13268-2 0  9996",
        "tle_line2": "2 31071  99.0415  60.3960 0055580 293.3951  66.1403 14.52575216654396"
      },
      "geometry": {
        "type": "Point",
        "coordinates": [
          -114.17240460817244,
          16.639673570885744
        ]
      }
    },
    {
      "type": "Feature",
      "properties": {
        "norad_id": 31072,
        "name": "FENGYUN 1C DEB",
        "group": "fengyun-1c-debris",
        "lat": 26.517409605726588,
        "lon": 175.46050197299672,
        "alt_km": 709.9817057076634,
        "timestamp": "2025-12-11T10:53:16.167851+00:00",
        "meta_object_name": "FENGYUN 1C DEB",
        "meta_object_id": "1999-025BFS",
        "meta_epoch": "2025-12-09T17:45:43.073568",
        "meta_mean_motion": 14.25468568,
        "meta_eccentricity": 0.02104856,
        "meta_inclination": 99.333,
        "meta_ra_of_asc_node": 348.93,
        "meta_arg_of_pericenter": 106.2729,
        "meta_mean_anomaly": 256.1714,
        "meta_ephemeris_type": 0,
        "meta_classification_type": "U",
        "meta_norad_cat_id": 31072,
        "meta_element_set_no": 999,
        "meta_rev_at_epoch": 96600,
        "meta_bstar": 0.00088556176,
        "meta_mean_motion_dot": 2.587e-05,
        "meta_mean_motion_ddot": 0,
        "tle_line1": "1 31072U 99025BFS 25343.74008187  .00002587  00000+0  88556-3 0  9996",
        "tle_line2": "2 31072  99.3330 348.9300 0210485 106.2729 256.1714 14.25468568966002"
      },
      "geometry": {
        "type": "Point",
        "coordinates": [
          175.46050197299672,
          26.517409605726588
        ]
      }
    }
  ]
}